{"type": "FeatureCollection", "features": [{"type": "Feature", "properties": {"norad_id": 24946, "name": "IRIDIUM 33", "group": "iridium-33-debris", "lat": -11.223440718005218, "lon": 68.77668256742842, "alt_km": 782.8278146153934, "timestamp": "2025-12-09T16:56:36.958863+00:00", "meta": {"OBJECT_NAME": "IRIDIUM 33", "OBJECT_ID": "1997-051C", "EPOCH": "2025-12-09T06:57:17.894016", "MEAN_MOTION": 14.35033739, "ECCENTRICITY": 0.0006648, "INCLINATION": 86.387, "RA_OF_ASC_NODE": 69.6697, "ARG_OF_PERICENTER": 213.1217, "MEAN_ANOMALY": 146.9564, "EPHEMERIS_TYPE": 0, "CLASSIFICATION_TYPE": "U", "NORAD_CAT_ID": 24946, "ELEMENT_SET_NO": 999, "REV_AT_EPOCH": 47785, "BSTAR": 0.00021762, "MEAN_MOTION_DOT": 6.39e-06, "MEAN_MOTION_DDOT": 0}, "tle": {"line1": "1 24946U 97051C   25343.28979044  .00000639  00000+0  21762-3 0  9995", "line2": "2 24946  86.3870  69.6697 0006648 213.1217 146.9564 14.35033739477857"}}, "geometry": {"type": "Point", "coordinates": [68.77668256742842, -11.223440718005218]}}, {"type": "Feature", "properties": {"norad_id": 33773, "name": "IRIDIUM 33 DEB", "group": "iridium-33-debris", "lat": -36.35466257607013, "lon": -115.47010827619157, "alt_km": 749.9993626750602, "timestamp": "2025-12-09T16:56:36.958900+00:00", "meta": {"OBJECT_NAME": "IRIDIUM 33 DEB", "OBJECT_ID": "1997-051L", "EPOCH": "2025-12-09T10:57:11.199168", "MEAN_MOTION": 14.43246661, "ECCENTRICITY": 0.0012165, "INCLINATION": 86.4015, "RA_OF_ASC_NODE": 61.9808, "ARG_OF_PERICENTER": 156.1113, "MEAN_ANOMALY": 204.0655, "EPHEMERIS_TYPE": 0, "CLASSIFICATION_TYPE": "U", "NORAD_CAT_ID": 33773, "ELEMENT_SET_NO": 999, "REV_AT_EPOCH": 88300, "BSTAR": 0.00055764, "MEAN_MOTION_DOT": 1.897e-05, "MEAN_MOTION_DDOT": 0}, "tle": {"line1": "1 33773U 97051L   25343.45637962  .00001897  00000+0  55764-3 0  9998", "line2": "2 33773  86.4015  61.9808 0012165 156.1113 204.0655 14.43246661883002"}}, "geometry": {"type": "Point", "coordinates": [-115.47010827619157, -36.35466257607013]}}, {"type": "Feature", "properties": {"norad_id": 33775, "name": "IRIDIUM 33 DEB", "group": "iridium-33-debris", "lat": -40.71066897166122, "lon": 47.71230052926372, "alt_km": 769.3302113744494, "timestamp": "2025-12-09T16:56:36.958916+00:00", "meta": {"OBJECT_NAME": "IRIDIUM 33 DEB", "OBJECT_ID": "1997-051N", "EPOCH": "2025-12-09T10:31:23.462400", "MEAN_MOTION": 14.41458397, "ECCENTRICITY": 0.0013918, "INCLINATION": 86.364, "RA_OF_ASC_NODE": 50.9629, "ARG_OF_PERICENTER": 164.8462, "MEAN_ANOMALY": 207.0419, "EPHEMERIS_TYPE": 0, "CLASSIFICATION_TYPE": "U", "NORAD_CAT_ID": 33775, "ELEMENT_SET_NO": 999, "REV_AT_EPOCH": 88093, "BSTAR": 0.00059353, "MEAN_MOTION_DOT": 1.946e-05, "MEAN_MOTION_DDOT": 0}, "tle": {"line1": "1 33775U 97051N   25343.43846600  .00001946  00000+0  59353-3 0  9992", "line2": "2 33775  86.3640  50.9629 0013918 164.8462 207.0419 14.41458397880935"}}, "geometry": {"type": "Point", "coordinates": [47.71230052926372, -40.71066897166122]}}, {"type": "Feature", "properties": {"norad_id": 33776, "name": "IRIDIUM 33 DEB", "group": "iridium-33-debris", "lat": -44.216272888315764, "lon": -94.44202442116419, "alt_km": 762.0056579919292, "timestamp": "2025-12-09T16:56:36.958930+00:00", "meta": {"OBJECT_NAME": "IRIDIUM 33 DEB", "OBJECT_ID": "1997-051P", "EPOCH": "2025-12-09T12:36:53.784000", "MEAN_MOTION": 14.38227239, "ECCENTRICITY": 0.0013958, "INCLINATION": 86.4038, "RA_OF_ASC_NODE": 82.1255, "ARG_OF_PERICENTER": 201.1241, "MEAN_ANOMALY": 169.799, "EPHEMERIS_TYPE": 0, "CLASSIFICATION_TYPE": "U", "NORAD_CAT_ID": 33776, "ELEMENT_SET_NO": 999, "REV_AT_EPOCH": 88036, "BSTAR": 0.00059847, "MEAN_MOTION_DOT": 1.839e-05, "MEAN_MOTION_DDOT": 0}, "tle": {"line1": "1 33776U 97051P   25343.52562250  .00001839  00000+0  59847-3 0  9998", "line2": "2 33776  86.4038  82.1255 0013958 201.1241 169.7990 14.38227239880364"}}, "geometry": {"type": "Point", "coordinates": [-94.44202442116419, -44.216272888315764]}}, {"type": "Feature", "properties": {"norad_id": 33777, "name": "IRIDIUM 33 DEB", "group": "iridium-33-debris", "lat": -2.539100566903629, "lon": -143.31609318252887, "alt_km": 710.3469619322686, "timestamp": "2025-12-09T16:56:36.958942+00:00", "meta": {"OBJECT_NAME": "IRIDIUM 33 DEB", "OBJECT_ID": "1997-051Q", "EPOCH": "2025-12-09T09:30:28.800288", "MEAN_MOTION": 14.5557564, "ECCENTRICITY": 0.0005065, "INCLINATION": 86.3783, "RA_OF_ASC_NODE": 36.6577, "ARG_OF_PERICENTER": 264.7924, "MEAN_ANOMALY": 95.2705, "EPHEMERIS_TYPE": 0, "CLASSIFICATION_TYPE": "U", "NORAD_CAT_ID": 33777, "ELEMENT_SET_NO": 999, "REV_AT_EPOCH": 88485, "BSTAR": 0.0013749, "MEAN_MOTION_DOT": 6.014e-05, "MEAN_MOTION_DDOT": 0}, "tle": {"line1": "1 33777U 97051Q   25343.39616667  .00006014  00000+0  13749-2 0  9996", "line2": "2 33777  86.3783  36.6577 0005065 264.7924  95.2705 14.55575640884851"}}, "geometry": {"type": "Point", "coordinates": [-143.31609318252887, -2.539100566903629]}}, {"type": "Feature", "properties": {"norad_id": 33850, "name": "IRIDIUM 33 DEB", "group": "iridium-33-debris", "lat": -66.93732957206292, "lon": 22.842734521153023, "alt_km": 763.3210696896549, "timestamp": "2025-12-09T16:56:36.958954+00:00", "meta": {"OBJECT_NAME": "IRIDIUM 33 DEB", "OBJECT_ID": "1997-051T", "EPOCH": "2025-12-09T04:12:04.722624", "MEAN_MOTION": 14.42134483, "ECCENTRICITY": 0.00118428, "INCLINATION": 86.342, "RA_OF_ASC_NODE": 31.7125, "ARG_OF_PERICENTER": 172.0555, "MEAN_ANOMALY": 246.0053, "EPHEMERIS_TYPE": 0, "CLASSIFICATION_TYPE": "U", "NORAD_CAT_ID": 33850, "ELEMENT_SET_NO": 999, "REV_AT_EPOCH": 88101, "BSTAR": 0.00048335793, "MEAN_MOTION_DOT": 1.61e-05, "MEAN_MOTION_DDOT": 0}, "tle": {"line1": "1 33850U 97051T   25343.17505466  .00001610  00000+0  48336-3 0  9996", "line2": "2 33850  86.3420  31.7125 0011842 172.0555 246.0053 14.42134483881016"}}, "geometry": {"type": "Point", "coordinates": [22.842734521153023, -66.93732957206292]}}, {"type": "Feature", "properties": {"norad_id": 33853, "name": "IRIDIUM 33 DEB", "group": "iridium-33-debris", "lat": 65.34547516075358, "lon": -0.08937425997865589, "alt_km": 1041.444101625818, "timestamp": "2025-12-09T16:56:36.958967+00:00", "meta": {"OBJECT_NAME": "IRIDIUM 33 DEB", "OBJECT_ID": "1997-051W", "EPOCH": "2025-12-09T12:13:24.015936", "MEAN_MOTION": 13.99031995, "ECCENTRICITY": 0.0206978, "INCLINATION": 85.9998, "RA_OF_ASC_NODE": 351.2277, "ARG_OF_PERICENTER": 245.8173, "MEAN_ANOMALY": 269.932, "EPHEMERIS_TYPE": 0, "CLASSIFICATION_TYPE": "U", "NORAD_CAT_ID": 33853, "ELEMENT_SET_NO": 999, "REV_AT_EPOCH": 85300, "BSTAR": 0.002996, "MEAN_MOTION_DOT": 5.22e-05, "MEAN_MOTION_DDOT": 0}, "tle": {"line1": "1 33853U 97051W   25343.50930574  .00005220  00000+0  29960-2 0  9990", "line2": "2 33853  85.9998 351.2277 0206978 245.8173 269.9320 13.99031995853007"}}, "geometry": {"type": "Point", "coordinates": [-0.08937425997865589, 65.34547516075358]}}, {"type": "Feature", "properties": {"norad_id": 33860, "name": "IRIDIUM 33 DEB", "group": "iridium-33-debris", "lat": -48.20506521748849, "lon": 24.523937009694254, "alt_km": 673.5499587535014, "timestamp": "2025-12-09T16:56:36.958978+00:00", "meta": {"OBJECT_NAME": "IRIDIUM 33 DEB", "OBJECT_ID": "1997-051AD", "EPOCH": "2025-12-09T02:41:58.809408", "MEAN_MOTION": 14.67293225, "ECCENTRICITY": 0.00079354, "INCLINATION": 86.3836, "RA_OF_ASC_NODE": 28.8434, "ARG_OF_PERICENTER": 10.3707, "MEAN_ANOMALY": 48.4876, "EPHEMERIS_TYPE": 0, "CLASSIFICATION_TYPE": "U", "NORAD_CAT_ID": 33860, "ELEMENT_SET_NO": 999, "REV_AT_EPOCH": 88669, "BSTAR": 0.001421155, "MEAN_MOTION_DOT": 8.042e-05, "MEAN_MOTION_DDOT": 0}, "tle": {"line1": "1 33860U 97051AD  25343.11248622  .00008042  00000+0  14212-2 0  9990", "line2": "2 33860  86.3836  28.8434 0007935  10.3707  48.4876 14.67293225886692"}}, "geometry": {"type": "Point", "coordinates": [24.523937009694254, -48.20506521748849]}}, {"type": "Feature", "properties": {"norad_id": 33862, "name": "IRIDIUM 33 DEB", "group": "iridium-33-debris", "lat": -36.35289495758079, "lon": 36.218440271509955, "alt_km": 685.6498352984672, "timestamp": "2025-12-09T16:56:36.958990+00:00", "meta": {"OBJECT_NAME": "IRIDIUM 33 DEB", "OBJECT_ID": "1997-051AF", "EPOCH": "2025-12-09T10:37:00.405120", "MEAN_MOTION": 14.69387938, "ECCENTRICITY": 0.005373, "INCLINATION": 86.4087, "RA_OF_ASC_NODE": 38.984, "ARG_OF_PERICENTER": 80.2159, "MEAN_ANOMALY": 290.4324, "EPHEMERIS_TYPE": 0, "CLASSIFICATION_TYPE": "U", "NORAD_CAT_ID": 33862, "ELEMENT_SET_NO": 999, "REV_AT_EPOCH": 88775, "BSTAR": 0.0018727, "MEAN_MOTION_DOT": 0.00011351, "MEAN_MOTION_DDOT": 0}, "tle": {"line1": "1 33862U 97051AF  25343.44236580  .00011351  00000+0  18727-2 0  9990", "line2": "2 33862  86.4087  38.9840 0053730  80.2159 290.4324 14.69387938887759"}}, "geometry": {"type": "Point", "coordinates": [36.218440271509955, -36.35289495758079]}}, {"type": "Feature", "properties": {"norad_id": 33866, "name": "IRIDIUM 33 DEB", "group": "iridium-33-debris", "lat": 29.1283226654317, "lon": -87.7472649614965, "alt_km": 729.2243299304837, "timestamp": "2025-12-09T16:56:36.959001+00:00", "meta": {"OBJECT_NAME": "IRIDIUM 33 DEB", "OBJECT_ID": "1997-051AK", "EPOCH": "2025-12-09T08:04:16.568832", "MEAN_MOTION": 14.25257308, "ECCENTRICITY": 0.0114196, "INCLINATION": 86.3001, "RA_OF_ASC_NODE": 94.4755, "ARG_OF_PERICENTER": 172.2365, "MEAN_ANOMALY": 243.3037, "EPHEMERIS_TYPE": 0, "CLASSIFICATION_TYPE": "U", "NORAD_CAT_ID": 33866, "ELEMENT_SET_NO": 999, "REV_AT_EPOCH": 86762, "BSTAR": 0.0011951, "MEAN_MOTION_DOT": 3.027e-05, "MEAN_MOTION_DDOT": 0}, "tle": {"line1": "1 33866U 97051AK  25343.33630288  .00003027  00000+0  11951-2 0  9998", "line2": "2 33866  86.3001  94.4755 0114196 172.2365 243.3037 14.25257308867626"}}, "geometry": {"type": "Point", "coordinates": [-87.7472649614965, 29.1283226654317]}}]}